OBJECT_NAME,OBJECT_ID,EPOCH,MEAN_MOTION,ECCENTRICITY,INCLINATION,RA_OF_ASC_NODE,ARG_OF_PERICENTER,MEAN_ANOMALY,EPHEMERIS_TYPE,CLASSIFICATION_TYPE,NORAD_CAT_ID,ELEMENT_SET_NO,REV_AT_EPOCH,BSTAR,MEAN_MOTION_DOT,MEAN_MOTION_DDOT
ONEWEB-0068,2020-020Y,2026-06-12T06:29:18.001536,13.11419244,.00017754,87.8901,22.0422,77.9673,282.1654,0,U,45446,999,30195,.78695307E-4,.41E-6,0
ONEWEB-0046,2020-020Z,2026-06-12T02:37:32.123712,13.11417981,.00020294,87.8893,22.0807,79.4188,280.7169,0,U,45447,999,30194,-.11888594E-2,-.409E-5,0
ONEWEB-0063,2020-020AA,2026-06-12T03:19:15.602592,13.11418672,.0002119,87.8900,22.0731,87.0714,273.0657,0,U,45448,999,30203,.17535534E-2,.634E-5,0
ONEWEB-0019,2020-020AB,2026-06-12T02:25:08.124672,13.11417685,.00016855,87.8893,22.0676,88.2987,271.8334,0,U,45449,999,30187,-.15004641E-2,-.519E-5,0
ONEWEB-0094,2020-020AC,2026-06-12T06:24:35.377632,13.17647604,.00016421,87.9146,6.8273,83.7529,276.3790,0,U,45450,999,30566,.90244127E-4,.48E-6,0
ONEWEB-0087,2020-020AD,2026-06-12T03:33:30.792384,13.11415752,.00017242,87.8908,22.0448,75.2072,284.9247,0,U,45451,999,30192,.83516457E-3,.309E-5,0
ONEWEB-0082,2020-020AE,2026-06-12T03:28:38.887392,13.11416721,.00019598,87.8899,22.0624,70.6364,289.4976,0,U,45452,999,30201,.12655501E-2,.461E-5,0
ONEWEB-0050,2020-020AF,2026-06-12T05:47:07.115712,14.90362079,.00038608,88.9298,233.8815,39.2604,320.8904,0,U,45453,999,33964,.22010703E-3,.2162E-4,0
ONEWEB-0034,2020-020AG,2026-06-12T02:32:52.282752,13.11428222,.00008776,87.8898,22.0800,81.3441,278.7786,0,U,45454,999,30192,-.13282183E-2,-.458E-5,0
ONEWEB-0060,2020-020AH,2026-06-12T03:17:50.461440,13.11417354,.00015197,87.8892,22.0717,50.1615,309.9647,0,U,45455,999,30188,.15741501E-2,.571E-5,0
ONEWEB-0086,2020-020AJ,2026-06-12T02:47:06.937728,13.11417361,.00010891,87.8900,22.0712,72.6800,287.4448,0,U,45456,999,30194,.17270629E-3,.74E-6,0
ONEWEB-0088,2020-020AK,2026-06-12T04:05:26.234592,13.11417388,.00022083,87.8909,22.0327,81.2201,278.9177,0,U,45457,999,30188,-.13494928E-2,-.466E-5,0
ONEWEB-0102,2020-100A,2026-06-12T06:06:52.482240,13.12445597,.00015472,87.8939,351.6568,95.7073,264.4232,0,U,47258,999,26408,-.635169E-3,-.216E-5,0
ONEWEB-0109,2020-100B,2026-06-12T06:19:05.018592,13.12444795,.00017789,87.8947,351.6380,95.2026,264.9306,0,U,47259,999,26391,.51453041E-4,.31E-6,0
ONEWEB-0110,2020-100C,2026-06-12T01:28:46.532352,13.12443336,.00015433,87.8948,351.6623,86.2224,273.9081,0,U,47260,999,26405,.86520426E-3,.324E-5,0
ONEWEB-0111,2020-100D,2026-06-12T05:52:13.886688,13.12441173,.00017902,87.8947,351.6446,86.7572,273.3762,0,U,47261,999,26391,-.12209528E-2,-.426E-5,0
ONEWEB-0114,2020-100E,2026-06-12T06:36:09.855648,13.12444451,.00019903,87.8947,351.6360,96.7068,263.4287,0,U,47262,999,26387,.10258673E-2,.382E-5,0
ONEWEB-0117,2020-100F,2026-06-12T06:23:58.250688,13.12443674,.00017693,87.8946,351.6288,90.0768,270.0563,0,U,47263,999,26388,.40670571E-3,.159E-5,0
ONEWEB-0118,2020-100G,2026-06-12T05:22:58.385568,13.12442124,.00021141,87.8946,351.6396,92.6767,267.4603,0,U,47264,999,26407,.98464558E-4,.48E-6,0
ONEWEB-0119,2020-100H,2026-06-12T05:59:34.107648,13.12443626,.00018201,87.8937,351.6521,90.8928,269.2410,0,U,47265,999,26405,-.10248464E-2,-.356E-5,0
ONEWEB-0120,2020-100J,2026-06-12T06:33:56.063520,13.12444026,.00018035,87.8936,351.6485,95.9746,264.1588,0,U,47266,999,26408,.90451936E-3,.338E-5,0
ONEWEB-0121,2020-100K,2026-06-12T00:47:18.184704,13.12444596,.00017813,87.8949,351.6818,79.5170,280.6160,0,U,47267,999,26396,.1603578E-3,.7E-6,0
ONEWEB-0122,2020-100L,2026-06-12T06:08:07.037664,13.12443862,.00016913,87.8950,351.6418,94.0762,266.0560,0,U,47268,999,26390,-.61201206E-3,-.207E-5,0
ONEWEB-0123,2020-100M,2026-06-12T06:02:00.389760,13.12444508,.00019202,87.8938,351.6507,90.8875,269.2473,0,U,47269,999,26404,-.90075218E-3,-.311E-5,0
ONEWEB-0124,2020-100N,2026-06-12T05:47:21.992928,13.12443570,.00018076,87.8936,351.6557,86.5647,273.5688,0,U,47270,999,26392,-.13568633E-2,-.475E-5,0
ONEWEB-0125,2020-100P,2026-06-12T05:15:39.107232,13.12443660,.00020079,87.8948,351.6427,82.4771,277.6586,0,U,47271,999,26398,.47284034E-3,.183E-5,0
ONEWEB-0126,2020-100Q,2026-06-12T05:45:08.106624,13.12442277,.00018413,87.8941,351.6546,93.7762,266.3577,0,U,47272,999,26405,-.1150344E-2,-.401E-5,0
ONEWEB-0127,2020-100R,2026-06-12T01:16:34.674240,13.12443850,.00017815,87.8935,351.6909,94.1636,265.9696,0,U,47273,999,26405,.12521299E-2,.463E-5,0
ONEWEB-0128,2020-100S,2026-06-12T05:27:50.760576,13.12441986,.00015165,87.8935,351.6699,84.8220,275.3081,0,U,47274,999,26409,-.26297147E-3,-.82E-6,0
ONEWEB-0129,2020-100T,2026-06-12T01:19:01.422912,13.12442656,.00021854,87.8947,351.6776,120.9619,239.1725,0,U,47275,999,26400,.11226524E-2,.417E-5,0
